{"type":"FeatureCollection","features":[{"type":"Feature","properties":{"c":"13201","n":"Marseille 1er Arrondissement","commune":"13055","km2":1.81},"geometry":{"type":"Polygon","coordinates":[[[5.3709,43.2936],[5.3711,43.2936],[5.3735,43.2942],[5.3732,43.2948],[5.3732,43.295],[5.3736,43.295],[5.375,43.3016],[5.3905,43.3094],[5.3944,43.302],[5.3891,43.3003],[5.3856,43.2943],[5.3721,43.291],[5.371,43.2936],[5.3709,43.2936]]]}},{"type":"Feature","properties":{"c":"13202","n":"Marseille 2e Arrondissement","commune":"13055","km2":3.39},"geometry":{"type":"MultiPolygon","coordinates":[[[[5.3603,43.3124],[5.3627,43.3135],[5.3641,43.3141],[5.362,43.3155],[5.3608,43.3163],[5.3588,43.3153],[5.3581,43.3164],[5.3613,43.3177],[5.3609,43.3183],[5.3572,43.3181],[5.3565,43.319],[5.3593,43.3202],[5.362,43.3209],[5.3621,43.3209],[5.3621,43.322],[5.3591,43.3253],[5.3587,43.3257],[5.3586,43.3257],[5.3574,43.3251],[5.3577,43.3247],[5.3588,43.3232],[5.358,43.3221],[5.3551,43.3208],[5.3543,43.3216],[5.3569,43.3229],[5.3566,43.3234],[5.3558,43.3245],[5.3543,43.3239],[5.3524,43.3231],[5.3517,43.3241],[5.3533,43.325],[5.3502,43.3289],[5.3498,43.3295],[5.3498,43.3318],[5.3459,43.3319],[5.345,43.3332],[5.3525,43.3328],[5.3525,43.3329],[5.3511,43.3347],[5.3484,43.3348],[5.3428,43.3351],[5.3416,43.3364],[5.3455,43.3363],[5.3505,43.3361],[5.355,43.3337],[5.3662,43.3193],[5.3691,43.3167],[5.368,43.3138],[5.375,43.3016],[5.3736,43.295],[5.3732,43.295],[5.3727,43.2961],[5.3663,43.2955],[5.3632,43.2948],[5.3602,43.2957],[5.3594,43.2976],[5.3597,43.2977],[5.3625,43.299],[5.3625,43.3013],[5.3623,43.3013],[5.3608,43.3014],[5.3613,43.3032],[5.3626,43.3037],[5.3641,43.3043],[5.3622,43.3051],[5.3644,43.3121],[5.3612,43.3113],[5.3603,43.3124]]],[[[5.3194,43.3475],[5.3286,43.3422],[5.335,43.3373],[5.3405,43.3343],[5.3453,43.3285],[5.3467,43.3272],[5.3506,43.3222],[5.357,43.3146],[5.3609,43.3086],[5.3532,43.3184],[5.3395,43.3347],[5.3343,43.3372],[5.3284,43.3418],[5.3189,43.3471],[5.3194,43.3475]]]]}},{"type":"Feature","properties":{"c":"13203","n":"Marseille 3e Arrondissement","commune":"13055","km2":2.44},"geometry":{"type":"Polygon","coordinates":[[[5.3755,43.3211],[5.3822,43.3168],[5.3879,43.315],[5.3932,43.3164],[5.3905,43.3094],[5.375,43.3016],[5.368,43.3138],[5.3691,43.3167],[5.3716,43.3201],[5.3755,43.3211]]]}},{"type":"Feature","properties":{"c":"13204","n":"Marseille 4e Arrondissement","commune":"13055","km2":2.97},"geometry":{"type":"Polygon","coordinates":[[[5.3944,43.302],[5.3905,43.3094],[5.3932,43.3164],[5.3936,43.3165],[5.3991,43.317],[5.4105,43.315],[5.4092,43.3123],[5.4096,43.3039],[5.4087,43.2956],[5.4002,43.2966],[5.3954,43.2994],[5.3891,43.3003],[5.3944,43.302]]]}},{"type":"Feature","properties":{"c":"13205","n":"Marseille 5e Arrondissement","commune":"13055","km2":2.16},"geometry":{"type":"Polygon","coordinates":[[[5.3954,43.2994],[5.4002,43.2966],[5.4087,43.2956],[5.4149,43.2917],[5.406,43.2904],[5.4027,43.2868],[5.3919,43.2848],[5.3892,43.2881],[5.3891,43.2932],[5.3856,43.2943],[5.3891,43.3003],[5.3954,43.2994]]]}},{"type":"Feature","properties":{"c":"13206","n":"Marseille 6e Arrondissement","commune":"13055","km2":1.93},"geometry":{"type":"Polygon","coordinates":[[[5.3856,43.2943],[5.3891,43.2932],[5.3892,43.2881],[5.3919,43.2848],[5.3887,43.2831],[5.3738,43.2792],[5.3701,43.2864],[5.3721,43.291],[5.3856,43.2943]]]}},{"type":"Feature","properties":{"c":"13207","n":"Marseille 7e Arrondissement","commune":"13055","km2":5.88},"geometry":{"type":"MultiPolygon","coordinates":[[[[5.3466,43.2828],[5.3491,43.2839],[5.3497,43.2859],[5.3521,43.2881],[5.3544,43.2893],[5.355,43.291],[5.3545,43.2914],[5.3533,43.2925],[5.3541,43.2938],[5.3575,43.2951],[5.3586,43.2948],[5.3611,43.293],[5.3613,43.2928],[5.3638,43.2927],[5.3647,43.2927],[5.3658,43.2928],[5.3689,43.2931],[5.3709,43.2936],[5.371,43.2936],[5.3721,43.291],[5.3701,43.2864],[5.3738,43.2792],[5.3727,43.2721],[5.3682,43.2685],[5.3674,43.2689],[5.367,43.269],[5.3631,43.2704],[5.3623,43.2725],[5.3617,43.274],[5.3601,43.2744],[5.3583,43.2761],[5.3549,43.2779],[5.3533,43.2787],[5.3533,43.2788],[5.3533,43.28],[5.351,43.2799],[5.3501,43.2798],[5.3476,43.2802],[5.3455,43.2816],[5.346,43.2822],[5.3466,43.2828]]],[[[5.3248,43.2789],[5.3244,43.2804],[5.3277,43.2805],[5.3267,43.2792],[5.3248,43.2789]]],[[[5.3119,43.2759],[5.3112,43.2743],[5.3086,43.2729],[5.3044,43.2729],[5.3016,43.272],[5.2999,43.2693],[5.2992,43.2671],[5.2963,43.2669],[5.2957,43.2653],[5.2925,43.2637],[5.2919,43.2623],[5.288,43.2612],[5.288,43.2627],[5.2863,43.264],[5.2857,43.2657],[5.2881,43.2665],[5.2903,43.2681],[5.2927,43.2682],[5.2966,43.2703],[5.2971,43.2719],[5.3012,43.2736],[5.3015,43.2754],[5.3036,43.2763],[5.303,43.2788],[5.301,43.2796],[5.2985,43.2784],[5.2968,43.2791],[5.2929,43.2793],[5.2916,43.2803],[5.2946,43.2814],[5.2976,43.2809],[5.2978,43.2818],[5.3021,43.282],[5.3034,43.2814],[5.305,43.2827],[5.3007,43.2834],[5.3005,43.2844],[5.3026,43.2854],[5.3055,43.2845],[5.3058,43.2854],[5.31,43.2852],[5.3114,43.2844],[5.3126,43.285],[5.3126,43.2873],[5.3169,43.287],[5.3178,43.2859],[5.3239,43.2862],[5.3233,43.2851],[5.321,43.285],[5.3208,43.2833],[5.3194,43.2824],[5.3177,43.2829],[5.3157,43.2813],[5.3135,43.2804],[5.3086,43.2815],[5.306,43.2793],[5.3036,43.2789],[5.3041,43.2765],[5.3057,43.2768],[5.308,43.277],[5.3119,43.2759]]]]}},{"type":"Feature","properties":{"c":"13208","n":"Marseille 8e Arrondissement","commune":"13055","km2":19.66},"geometry":{"type":"MultiPolygon","coordinates":[[[[5.3428,43.2168],[5.3458,43.2169],[5.3448,43.2189],[5.3447,43.2213],[5.3447,43.2215],[5.3464,43.226],[5.3469,43.2263],[5.348,43.2271],[5.348,43.229],[5.348,43.2295],[5.3501,43.232],[5.3517,43.2327],[5.3522,43.2329],[5.3527,43.2331],[5.3533,43.2331],[5.3557,43.2329],[5.3566,43.2335],[5.3568,43.2338],[5.3594,43.2357],[5.3603,43.2376],[5.3613,43.2379],[5.3617,43.2387],[5.3622,43.2397],[5.3625,43.2431],[5.3651,43.2423],[5.3669,43.2424],[5.3686,43.2441],[5.367,43.2452],[5.3698,43.2456],[5.3705,43.2445],[5.3725,43.2451],[5.3747,43.2484],[5.3752,43.2513],[5.3733,43.2521],[5.3746,43.2532],[5.3748,43.2552],[5.376,43.2552],[5.3761,43.2552],[5.3755,43.2581],[5.3748,43.2594],[5.3747,43.2595],[5.3728,43.2591],[5.3715,43.2599],[5.3722,43.2611],[5.3723,43.2614],[5.3708,43.263],[5.3683,43.2641],[5.3677,43.2643],[5.3682,43.2652],[5.3687,43.266],[5.3709,43.266],[5.3702,43.2675],[5.3682,43.2685],[5.3727,43.2721],[5.3738,43.2792],[5.3887,43.2831],[5.3991,43.2776],[5.3998,43.2746],[5.401,43.2701],[5.3939,43.2679],[5.3991,43.2587],[5.399,43.2552],[5.3946,43.2534],[5.3969,43.2474],[5.3925,43.2433],[5.3915,43.236],[5.3895,43.233],[5.3851,43.2323],[5.3806,43.2278],[5.3836,43.2234],[5.3816,43.2098],[5.38,43.2105],[5.3757,43.2098],[5.375,43.2094],[5.3736,43.2085],[5.3725,43.2086],[5.3686,43.2073],[5.3641,43.2072],[5.3634,43.2072],[5.3604,43.2091],[5.3568,43.2084],[5.3536,43.21],[5.3528,43.2113],[5.3506,43.2111],[5.3471,43.2127],[5.346,43.2124],[5.3451,43.2121],[5.3418,43.2126],[5.3405,43.2137],[5.3425,43.2168],[5.3428,43.2168]]],[[[5.3633,43.1988],[5.3666,43.1976],[5.3685,43.196],[5.37,43.1954],[5.3705,43.1938],[5.3658,43.1962],[5.3614,43.1969],[5.3625,43.2],[5.3633,43.1988]]],[[[5.3324,43.2107],[5.3294,43.2111],[5.3285,43.2125],[5.333,43.213],[5.3356,43.2126],[5.3374,43.2129],[5.3396,43.2118],[5.34,43.2101],[5.3382,43.2079],[5.3348,43.2097],[5.3334,43.2093],[5.3324,43.2107]]]]}},{"type":"Feature","properties":{"c":"13209","n":"Marseille 9e Arrondissement","commune":"13055","km2":64.63},"geometry":{"type":"MultiPolygon","coordinates":[[[[5.3818,43.2097],[5.3816,43.2098],[5.3836,43.2234],[5.3806,43.2278],[5.3851,43.2323],[5.3895,43.233],[5.3915,43.236],[5.3925,43.2433],[5.3969,43.2474],[5.3946,43.2534],[5.399,43.2552],[5.3991,43.2587],[5.3939,43.2679],[5.401,43.2701],[5.3998,43.2746],[5.4101,43.2756],[5.4146,43.2694],[5.4174,43.268],[5.4298,43.2656],[5.4314,43.2604],[5.4411,43.2584],[5.4522,43.2575],[5.4595,43.2548],[5.4724,43.2534],[5.4825,43.2549],[5.4862,43.2578],[5.4849,43.2623],[5.4923,43.2674],[5.4961,43.2685],[5.5084,43.2639],[5.513,43.2634],[5.5143,43.2612],[5.5149,43.2601],[5.5155,43.258],[5.5168,43.2534],[5.5173,43.252],[5.5182,43.2496],[5.5193,43.2456],[5.5196,43.2443],[5.5195,43.2439],[5.5193,43.2417],[5.5258,43.2382],[5.5262,43.2375],[5.5245,43.2352],[5.5233,43.2348],[5.5147,43.235],[5.5098,43.2351],[5.5071,43.2332],[5.5071,43.2329],[5.5071,43.231],[5.5064,43.2297],[5.5067,43.2268],[5.5084,43.2254],[5.5107,43.2236],[5.512,43.222],[5.512,43.2219],[5.512,43.22],[5.5167,43.2171],[5.5168,43.217],[5.5179,43.2155],[5.5174,43.2135],[5.5174,43.2134],[5.5139,43.2078],[5.5127,43.2073],[5.5118,43.2069],[5.5102,43.198],[5.5102,43.1979],[5.5092,43.1978],[5.5091,43.1981],[5.5083,43.2013],[5.5054,43.1994],[5.5028,43.2007],[5.5022,43.1995],[5.5044,43.1987],[5.5001,43.197],[5.4999,43.1969],[5.4969,43.1985],[5.4944,43.2005],[5.4946,43.2012],[5.4949,43.2026],[5.4929,43.2035],[5.4915,43.2024],[5.4897,43.2033],[5.4873,43.2039],[5.4861,43.2042],[5.4848,43.2045],[5.4834,43.2058],[5.4807,43.2052],[5.4795,43.2046],[5.4781,43.2039],[5.4737,43.2059],[5.4702,43.2059],[5.4708,43.2074],[5.469,43.2087],[5.4682,43.2086],[5.4644,43.2083],[5.463,43.2094],[5.4627,43.2097],[5.4607,43.2099],[5.4589,43.2112],[5.4573,43.2113],[5.4556,43.2105],[5.4535,43.2095],[5.4483,43.2101],[5.4481,43.2103],[5.4472,43.2114],[5.4452,43.2112],[5.4462,43.2102],[5.4477,43.2088],[5.4474,43.2082],[5.447,43.2074],[5.4482,43.2068],[5.4508,43.2055],[5.4526,43.2039],[5.4542,43.2036],[5.4545,43.202],[5.451,43.203],[5.449,43.2026],[5.4472,43.2047],[5.4468,43.2052],[5.4459,43.2049],[5.4444,43.2043],[5.442,43.2052],[5.4398,43.2061],[5.4388,43.2071],[5.437,43.2063],[5.4367,43.2062],[5.433,43.2072],[5.4325,43.2074],[5.432,43.2082],[5.4291,43.2092],[5.4275,43.2092],[5.4266,43.2092],[5.4243,43.2103],[5.4232,43.2104],[5.4209,43.2105],[5.4203,43.2096],[5.423,43.2083],[5.4245,43.2068],[5.4262,43.2052],[5.4269,43.2035],[5.4256,43.2039],[5.4245,43.2042],[5.4224,43.2049],[5.4205,43.2059],[5.4177,43.2073],[5.4171,43.2073],[5.416,43.2072],[5.412,43.2089],[5.4101,43.2101],[5.409,43.2108],[5.4082,43.2119],[5.4059,43.2118],[5.4055,43.2118],[5.4053,43.2121],[5.4045,43.2129],[5.3987,43.2129],[5.3974,43.2125],[5.3971,43.2124],[5.3963,43.2124],[5.3939,43.2125],[5.3899,43.212],[5.3895,43.2117],[5.3874,43.2103],[5.3822,43.2095],[5.3818,43.2097]]],[[[5.3803,43.1758],[5.3771,43.1758],[5.3757,43.1767],[5.373,43.1774],[5.3738,43.1792],[5.3774,43.1794],[5.3804,43.1804],[5.3838,43.1786],[5.3897,43.1779],[5.3928,43.1767],[5.3961,43.1761],[5.3984,43.1743],[5.3967,43.173],[5.3931,43.1731],[5.3889,43.1727],[5.3864,43.1731],[5.385,43.1743],[5.3816,43.1748],[5.3803,43.1758]]],[[[5.3851,43.1891],[5.3878,43.1875],[5.3913,43.1861],[5.389,43.1854],[5.3836,43.1872],[5.3809,43.1899],[5.3825,43.1906],[5.3845,43.19],[5.3851,43.1891]]]]}},{"type":"Feature","properties":{"c":"13210","n":"Marseille 10e Arrondissement","commune":"13055","km2":10.6},"geometry":{"type":"Polygon","coordinates":[[[5.4027,43.2868],[5.406,43.2904],[5.4149,43.2917],[5.4258,43.2901],[5.4294,43.2858],[5.4399,43.285],[5.4434,43.2818],[5.4444,43.2768],[5.4533,43.2729],[5.4541,43.2654],[5.4593,43.26],[5.4522,43.2575],[5.4411,43.2584],[5.4314,43.2604],[5.4298,43.2656],[5.4174,43.268],[5.4146,43.2694],[5.4101,43.2756],[5.3998,43.2746],[5.3991,43.2776],[5.3887,43.2831],[5.3919,43.2848],[5.4027,43.2868]]]}},{"type":"Feature","properties":{"c":"13211","n":"Marseille 11e Arrondissement","commune":"13055","km2":33.41},"geometry":{"type":"Polygon","coordinates":[[[5.5055,43.2801],[5.5053,43.2769],[5.5061,43.2744],[5.5061,43.2743],[5.5092,43.2715],[5.5102,43.2695],[5.5107,43.2686],[5.5144,43.2677],[5.5144,43.2676],[5.5147,43.2672],[5.5131,43.2637],[5.513,43.2634],[5.5084,43.2639],[5.4961,43.2685],[5.4923,43.2674],[5.4849,43.2623],[5.4862,43.2578],[5.4825,43.2549],[5.4724,43.2534],[5.4595,43.2548],[5.4522,43.2575],[5.4593,43.26],[5.4541,43.2654],[5.4533,43.2729],[5.4444,43.2768],[5.4434,43.2818],[5.4399,43.285],[5.4294,43.2858],[5.4258,43.2901],[5.4328,43.2947],[5.4478,43.2964],[5.4576,43.3014],[5.4698,43.2997],[5.4771,43.3006],[5.4765,43.3073],[5.4715,43.3135],[5.4751,43.3147],[5.4823,43.3138],[5.4833,43.3147],[5.4877,43.3155],[5.4887,43.3154],[5.4951,43.315],[5.4974,43.3154],[5.5,43.3151],[5.5016,43.3173],[5.5019,43.3176],[5.5052,43.3178],[5.5069,43.3179],[5.5124,43.3202],[5.5127,43.3206],[5.5136,43.3219],[5.5149,43.3215],[5.5159,43.3211],[5.5175,43.3213],[5.5179,43.3213],[5.5228,43.3208],[5.5226,43.3194],[5.5213,43.3177],[5.5212,43.3164],[5.523,43.3142],[5.5253,43.314],[5.5278,43.3137],[5.5295,43.3143],[5.5307,43.3137],[5.5307,43.3122],[5.5284,43.3111],[5.5271,43.3091],[5.5285,43.3072],[5.5284,43.3052],[5.5284,43.3037],[5.5294,43.303],[5.5302,43.3011],[5.5325,43.2995],[5.5321,43.2983],[5.5303,43.2973],[5.5269,43.2942],[5.525,43.2942],[5.5246,43.2942],[5.5233,43.2934],[5.5229,43.2932],[5.5224,43.2927],[5.521,43.2913],[5.521,43.2911],[5.5211,43.2899],[5.5197,43.2895],[5.5185,43.2892],[5.5184,43.288],[5.5183,43.288],[5.5161,43.2881],[5.5129,43.2889],[5.5122,43.2876],[5.5119,43.2869],[5.5111,43.2822],[5.5053,43.2832],[5.5053,43.2831],[5.5047,43.2814],[5.5055,43.2801]]]}},{"type":"Feature","properties":{"c":"13212","n":"Marseille 12e Arrondissement","commune":"13055","km2":14.32},"geometry":{"type":"Polygon","coordinates":[[[5.4105,43.315],[5.4178,43.3198],[5.4287,43.3231],[5.4361,43.3237],[5.4439,43.32],[5.4595,43.318],[5.4666,43.323],[5.4672,43.3224],[5.4674,43.3222],[5.4708,43.3199],[5.4713,43.3184],[5.4717,43.3173],[5.4733,43.3164],[5.4744,43.3159],[5.4751,43.3148],[5.4751,43.3147],[5.4715,43.3135],[5.4765,43.3073],[5.4771,43.3006],[5.4698,43.2997],[5.4576,43.3014],[5.4478,43.2964],[5.4328,43.2947],[5.4258,43.2901],[5.4149,43.2917],[5.4087,43.2956],[5.4096,43.3039],[5.4092,43.3123],[5.4105,43.315]]]}},{"type":"Feature","properties":{"c":"13213","n":"Marseille 13e Arrondissement","commune":"13055","km2":27.86},"geometry":{"type":"Polygon","coordinates":[[[5.455,43.3357],[5.4551,43.3356],[5.4582,43.3314],[5.4596,43.3306],[5.4666,43.323],[5.4595,43.318],[5.4439,43.32],[5.4361,43.3237],[5.4287,43.3231],[5.4178,43.3198],[5.4105,43.315],[5.3991,43.317],[5.3936,43.3165],[5.4061,43.3311],[5.4161,43.3528],[5.4126,43.3601],[5.4138,43.3638],[5.4135,43.376],[5.4154,43.3788],[5.415,43.3786],[5.4222,43.3822],[5.4246,43.3834],[5.4262,43.3835],[5.429,43.385],[5.4306,43.3852],[5.4321,43.3861],[5.4335,43.387],[5.4358,43.3873],[5.4374,43.3888],[5.4387,43.3909],[5.4402,43.391],[5.4415,43.39],[5.4456,43.3884],[5.4475,43.387],[5.4491,43.3857],[5.4505,43.3829],[5.4508,43.3822],[5.4584,43.3719],[5.4593,43.3707],[5.4599,43.3689],[5.4602,43.3681],[5.4604,43.3679],[5.461,43.3674],[5.4611,43.3666],[5.4613,43.365],[5.4627,43.3635],[5.4636,43.3625],[5.4636,43.3618],[5.4635,43.361],[5.4642,43.3604],[5.4646,43.3601],[5.4618,43.3563],[5.4611,43.3558],[5.4594,43.3547],[5.4566,43.3519],[5.4559,43.3504],[5.4557,43.3502],[5.4532,43.3475],[5.4531,43.3473],[5.4519,43.3451],[5.4502,43.3392],[5.4505,43.3389],[5.4522,43.3369],[5.455,43.3357]]]}},{"type":"Feature","properties":{"c":"13214","n":"Marseille 14e Arrondissement","commune":"13055","km2":16.24},"geometry":{"type":"Polygon","coordinates":[[[5.3783,43.3445],[5.377,43.3544],[5.3864,43.3638],[5.3984,43.3681],[5.3946,43.3722],[5.3916,43.3721],[5.3914,43.372],[5.3924,43.3732],[5.3938,43.3737],[5.3952,43.3742],[5.3957,43.3744],[5.3966,43.3743],[5.4003,43.374],[5.4048,43.3752],[5.4049,43.3753],[5.4056,43.3767],[5.4078,43.3763],[5.4109,43.3757],[5.413,43.3766],[5.4139,43.3781],[5.415,43.3786],[5.4154,43.3788],[5.4135,43.376],[5.4138,43.3638],[5.4126,43.3601],[5.4161,43.3528],[5.4061,43.3311],[5.3936,43.3165],[5.3932,43.3164],[5.3879,43.315],[5.3822,43.3168],[5.3755,43.3211],[5.3716,43.3201],[5.3673,43.3313],[5.3675,43.3362],[5.3773,43.341],[5.3783,43.3445]]]}},{"type":"Feature","properties":{"c":"13215","n":"Marseille 15e Arrondissement","commune":"13055","km2":17.26},"geometry":{"type":"Polygon","coordinates":[[[5.3376,43.3395],[5.3434,43.3399],[5.3481,43.3421],[5.3452,43.3466],[5.3465,43.3493],[5.3519,43.3512],[5.3453,43.3634],[5.3331,43.3699],[5.3323,43.3714],[5.3314,43.3714],[5.3323,43.3715],[5.3339,43.3732],[5.3371,43.3753],[5.3364,43.3768],[5.3386,43.3773],[5.3403,43.3766],[5.3444,43.3751],[5.3488,43.3755],[5.3489,43.3755],[5.3491,43.3754],[5.3522,43.3743],[5.3552,43.3745],[5.3545,43.3763],[5.3531,43.3774],[5.353,43.3775],[5.351,43.3813],[5.3504,43.3825],[5.3505,43.3825],[5.3546,43.3846],[5.3561,43.3847],[5.3587,43.385],[5.3607,43.386],[5.3607,43.3866],[5.3608,43.3872],[5.3623,43.3872],[5.3632,43.3872],[5.3647,43.3881],[5.3665,43.3881],[5.3685,43.3896],[5.3692,43.3895],[5.3746,43.3886],[5.3751,43.3881],[5.3754,43.3878],[5.3776,43.3857],[5.3784,43.3843],[5.3768,43.3837],[5.3768,43.3819],[5.3775,43.3802],[5.3777,43.3796],[5.3773,43.3794],[5.3745,43.3781],[5.3768,43.377],[5.3781,43.3764],[5.378,43.3745],[5.376,43.3722],[5.376,43.372],[5.3761,43.3706],[5.3796,43.3697],[5.3815,43.3702],[5.382,43.3713],[5.3839,43.3707],[5.3852,43.3702],[5.3852,43.3709],[5.3852,43.3713],[5.39,43.3725],[5.3913,43.372],[5.3914,43.372],[5.3916,43.3721],[5.3946,43.3722],[5.3984,43.3681],[5.3864,43.3638],[5.377,43.3544],[5.3783,43.3445],[5.3773,43.341],[5.3675,43.3362],[5.3673,43.3313],[5.3716,43.3201],[5.3691,43.3167],[5.3662,43.3193],[5.355,43.3337],[5.3505,43.3361],[5.3455,43.3363],[5.3432,43.3391],[5.3412,43.3392],[5.3376,43.3395]]]}},{"type":"Feature","properties":{"c":"13216","n":"Marseille 16e Arrondissement","commune":"13055","km2":13.94},"geometry":{"type":"Polygon","coordinates":[[[5.2796,43.3605],[5.2791,43.3626],[5.2784,43.3634],[5.278,43.3639],[5.2782,43.3664],[5.2799,43.3708],[5.2814,43.3714],[5.2838,43.3723],[5.285,43.3748],[5.284,43.3751],[5.2829,43.3754],[5.2813,43.3778],[5.2807,43.3788],[5.2788,43.3805],[5.2811,43.3803],[5.2816,43.382],[5.2859,43.3834],[5.2855,43.3842],[5.2899,43.3851],[5.2909,43.3853],[5.2929,43.3851],[5.294,43.3872],[5.2967,43.3888],[5.297,43.389],[5.299,43.387],[5.3022,43.387],[5.304,43.3848],[5.304,43.3809],[5.3088,43.3814],[5.3103,43.3815],[5.3115,43.379],[5.3116,43.379],[5.3155,43.377],[5.3171,43.3769],[5.3176,43.3754],[5.318,43.3744],[5.3193,43.3734],[5.3188,43.3701],[5.3205,43.3685],[5.3219,43.3682],[5.324,43.3697],[5.3243,43.3711],[5.3249,43.3713],[5.3272,43.3724],[5.3295,43.3714],[5.3298,43.3713],[5.3314,43.3714],[5.3323,43.3714],[5.3331,43.3699],[5.3453,43.3634],[5.3519,43.3512],[5.3465,43.3493],[5.3452,43.3466],[5.3481,43.3421],[5.3434,43.3399],[5.3376,43.3395],[5.3283,43.3447],[5.3293,43.3456],[5.3319,43.3449],[5.3362,43.3429],[5.3388,43.3414],[5.3392,43.3412],[5.3406,43.3427],[5.3399,43.343],[5.3395,43.3432],[5.341,43.3448],[5.3397,43.3456],[5.3319,43.35],[5.3307,43.3501],[5.3286,43.3512],[5.3262,43.3524],[5.3269,43.3533],[5.3242,43.3544],[5.3226,43.3533],[5.3219,43.3528],[5.3174,43.3551],[5.3173,43.3551],[5.3157,43.353],[5.3141,43.3546],[5.3167,43.3565],[5.3173,43.3563],[5.3226,43.3542],[5.322,43.3555],[5.3188,43.357],[5.3174,43.3589],[5.3173,43.3589],[5.3169,43.3591],[5.3142,43.36],[5.3128,43.3603],[5.3106,43.3608],[5.3083,43.3614],[5.2965,43.3596],[5.296,43.3582],[5.2935,43.3585],[5.2881,43.3569],[5.2867,43.355],[5.2853,43.355],[5.2824,43.3538],[5.2823,43.3537],[5.2832,43.356],[5.2815,43.3569],[5.28,43.3593],[5.2797,43.3598],[5.2796,43.3605]]]}}]}